STARLINK-2105           
1 47385U 21005AN  26150.06493610 -.00000570  00000+0 -65913-5 0  9990
2 47385  53.1594  18.5896 0001193  81.1616 278.9520 15.31697033295849
STARLINK-2106           
1 47386U 21005AP  26150.03957832  .00005276  00000+0  19020-3 0  9991
2 47386  53.1601  18.8316 0001231  92.4823 267.6318 15.30186137295844
STARLINK-2109           
1 47388U 21005AR  26150.08152618  .00002070  00000+0  78454-4 0  9993
2 47388  53.1605  47.7050 0001409  78.1189 281.9970 15.31701627295435
STARLINK-2110           
1 47389U 21005AS  26150.02293875  .00000274  00000+0  20602-4 0  9995
2 47389  53.1602  18.4315 0001227  90.5373 269.5769 15.31696878295858
STARLINK-2111           
1 47390U 21005AT  26150.12346669  .00005138  00000+0  17714-3 0  9991
2 47390  53.1612  47.5646 0000392  68.0807 292.0236 15.31712903295448
STARLINK-2112           
1 47391U 21005AU  26150.05168757  .00028233  00000+0  16729-2 0  9999
2 47391  53.0674  24.9169 0002141 113.8071 246.3145 15.11198797295742
STARLINK-2113           
1 47392U 21005AV  26150.25002315  .00126309  00000+0  74987-3 0  9993
2 47392  53.0447 334.4727 0001193 117.4521  25.6025 15.77157327  5982
STARLINK-2114           
1 47393U 21005AW  26150.25002315  .00561286  14143-3  13602-2 0  9994
2 47393  53.0303 295.9511 0008879 293.8470 119.4770 15.95708997  5755
STARLINK-2119           
1 47397U 21005BA  26150.11345189  .00043397  00000+0  13555-2 0  9990
2 47397  53.1599  43.9300 0001524 152.9704 207.1378 15.32781142295506
STARLINK-2121           
1 47399U 21005BC  26149.63608587 -.00000692  00000+0 -10520-4 0  9995
2 47399  53.1607  20.1964 0001255  85.4242 274.6903 15.31702773295795
STARLINK-2122           
1 47400U 21005BD  26149.95720079  .00003663  00000+0  12966-3 0  9998
2 47400  53.1611 355.5292 0001236  96.3352 263.7790 15.31722451296175
STARLINK-2123           
1 47401U 21005BE  26150.00900598  .00005901  00000+0  20173-3 0  9999
2 47401  53.1601  18.7186 0001226 114.9983 245.1146 15.31704825295848
STARLINK-2128           
1 47404U 21005BH  26150.16668980  .00146727  00000+0  75588-3 0  9997
2 47404  53.0422 333.2854 0001825 159.7322 141.0028 15.80239187  5937
STARLINK-2130           
1 47405U 21005BJ  26150.08534051 -.00002933  00000+0 -82790-4 0  9996
2 47405  53.1622  43.8323 0001269  85.9782 274.1364 15.31698281295491
STARLINK-2134           
1 47407U 21005BL  26150.16803228  .00006385  00000+0  21736-3 0  9997
2 47407  53.1597  19.8197 0001162 101.4384 258.6748 15.31699452295832
STARLINK-2135           
1 47408U 21005BM  26150.04164861  .00004193  00000+0  14685-3 0  9998
2 47408  53.1602  18.7961 0001100  85.7358 274.3770 15.31686782295847
ASTROCAST-0101          
1 47430U 21006T   26150.14554581  .00376620  00000+0  20559-2 0  9990
2 47430  97.2283 218.0969 0004662 245.0641 115.0142 15.78865490297102
CUBEL                   
1 47448U 21006AM  26149.65438982  .00010364  00000+0  25588-3 0  9997
2 47448  97.2350 200.4198 0005315 227.8174 132.2622 15.40682597296905
CELESTIS-17 & SHERPA-FX1
1 47486U 21006CB  26150.11903001  .00008191  00000+0  26789-3 0  9990
2 47486  97.2264 191.6196 0004763 257.7308 102.3401 15.31945823296533
HAWK-2C                 
1 47502U 21006CT  26150.02441872  .00008746  00000+0  26458-3 0  9991
2 47502  97.2290 194.6987 0005059 261.6044  98.4626 15.34419484296718
ION SCV-002             
1 47504U 21006CV  26149.56619334  .00015171  00000+0  33914-3 0  9995
2 47504  97.1117 151.8958 0011408 173.3066 186.8337 15.43520899297151
HAWK-2A                 
1 47505U 21006CW  26150.09230402  .00008402  00000+0  25417-3 0  9999
2 47505  97.2331 195.4320 0004581 267.2972  92.7747 15.34435448296728
HAWK-2B                 
1 47508U 21006CZ  26150.02348737  .00010083  00000+0  30394-3 0  9994
2 47508  97.2203 193.7259 0005051 264.0580  96.0088 15.34490829296712
GHGSAT-C2               
1 47509U 21006DA  26150.12365014  .00008673  00000+0  23745-3 0  9997
2 47509  97.2161 197.6957 0003991 214.8020 145.2964 15.37560189297077
ASTROCAST-0105          
1 47517U 21006DH  26150.13100532  .00665128  17574-3  22265-2 0  9996
2 47517  97.2029 213.8161 0007971 229.7102 130.3476 15.90100353298082
YAOGAN-31 02A           
1 47532U 21007A   26150.20662848 -.00000133  00000+0 -65503-4 0  9992
2 47532  63.4027 189.3277 0174370   0.4417 359.6732 13.45446536261814
YAOGAN-31 02B           
1 47533U 21007B   26150.20666142 -.00000151  00000+0 -93387-4 0  9995
2 47533  63.4020 188.3351 0174858   0.5587 359.5603 13.45446567261810
YAOGAN-31 02C           
1 47536U 21007E   26150.20642388 -.00000122  00000+0 -48979-4 0  9999
2 47536  63.4020 188.3531 0174476   0.5760 359.5436 13.45445679261796
COSMOS 2549             
1 47546U 21008A   26150.20574494 -.00000024  00000+0  36731-4 0  9996
2 47546  67.1512  28.7955 0005646 263.8840  96.1601 13.97020741271320
STARLINK-1954           
1 47555U 21009H   26149.95681310  .00068795  00000+0  17416-2 0  9998
2 47555  53.0528 348.8772 0002245 107.3789 252.7460 15.39135886293445
