OBJECT_NAME,OBJECT_ID,EPOCH,MEAN_MOTION,ECCENTRICITY,INCLINATION,RA_OF_ASC_NODE,ARG_OF_PERICENTER,MEAN_ANOMALY,EPHEMERIS_TYPE,CLASSIFICATION_TYPE,NORAD_CAT_ID,ELEMENT_SET_NO,REV_AT_EPOCH,BSTAR,MEAN_MOTION_DOT,MEAN_MOTION_DDOT
STARLINK-2105,2021-005AN,2026-05-30T01:33:30.479040,15.31697033,.0001193,53.1594,18.5896,81.1616,278.9520,0,U,47385,999,29584,-.65913E-5,-.57E-5,0
STARLINK-2106,2021-005AP,2026-05-30T00:56:59.566848,15.30186137,.0001231,53.1601,18.8316,92.4823,267.6318,0,U,47386,999,29584,.1902E-3,.5276E-4,0
STARLINK-2109,2021-005AR,2026-05-30T01:57:23.861952,15.31701627,.0001409,53.1605,47.7050,78.1189,281.9970,0,U,47388,999,29543,.78454E-4,.207E-4,0
STARLINK-2110,2021-005AS,2026-05-30T00:33:01.908000,15.31696878,.0001227,53.1602,18.4315,90.5373,269.5769,0,U,47389,999,29585,.20602E-4,.274E-5,0
STARLINK-2111,2021-005AT,2026-05-30T02:57:47.522016,15.31712903,.0000392,53.1612,47.5646,68.0807,292.0236,0,U,47390,999,29544,.17714E-3,.5138E-4,0
STARLINK-2112,2021-005AU,2026-05-30T01:14:25.806048,15.11198797,.0002141,53.0674,24.9169,113.8071,246.3145,0,U,47391,999,29574,.16729E-2,.28233E-3,0
STARLINK-2113,2021-005AV,2026-05-30T06:00:02.000160,15.77157327,.0001193,53.0447,334.4727,117.4521,25.6025,0,U,47392,999,598,.74987E-3,.126309E-2,0
STARLINK-2114,2021-005AW,2026-05-30T06:00:02.000160,15.95708997,.0008879,53.0303,295.9511,293.8470,119.4770,0,U,47393,999,575,.13602E-2,.561286E-2,.14143E-3
STARLINK-2119,2021-005BA,2026-05-30T02:43:22.243296,15.32781142,.0001524,53.1599,43.9300,152.9704,207.1378,0,U,47397,999,29550,.13555E-2,.43397E-3,0
STARLINK-2121,2021-005BC,2026-05-29T15:15:57.819168,15.31702773,.00012558,53.1607,20.1964,85.4242,274.6903,0,U,47399,999,29579,-.10519993E-4,-.692E-5,0
STARLINK-2122,2021-005BD,2026-05-29T22:58:22.148256,15.31722451,.0001236,53.1611,355.5292,96.3352,263.7790,0,U,47400,999,29617,.1296576E-3,.3663E-4,0
STARLINK-2123,2021-005BE,2026-05-30T00:12:58.116672,15.31704825,.0001226,53.1601,18.7186,114.9983,245.1146,0,U,47401,999,29584,.20173E-3,.5901E-4,0
STARLINK-2128,2021-005BH,2026-05-30T04:00:01.998720,15.80239187,.0001825,53.0422,333.2854,159.7322,141.0028,0,U,47404,999,593,.75588E-3,.146727E-2,0
STARLINK-2130,2021-005BJ,2026-05-30T02:02:53.420064,15.31698281,.0001269,53.1622,43.8323,85.9782,274.1364,0,U,47405,999,29549,-.8279E-4,-.2933E-4,0
STARLINK-2134,2021-005BL,2026-05-30T04:01:57.988992,15.31699452,.0001162,53.1597,19.8197,101.4384,258.6748,0,U,47407,999,29583,.21736E-3,.6385E-4,0
STARLINK-2135,2021-005BM,2026-05-30T00:59:58.439904,15.31686782,.00011,53.1602,18.7961,85.7358,274.3770,0,U,47408,999,29584,.14685E-3,.4193E-4,0
ASTROCAST-0101,2021-006T,2026-05-30T03:29:35.157984,15.78865490,.0004662,97.2283,218.0969,245.0641,115.0142,0,U,47430,999,29710,.20559E-2,.37662E-2,0
CUBEL,2021-006AM,2026-05-29T15:42:19.280448,15.40682597,.00053153,97.2350,200.4198,227.8174,132.2622,0,U,47448,999,29690,.25587685E-3,.10364E-3,0
CELESTIS-17 & SHERPA-FX1,2021-006CB,2026-05-30T02:51:24.192864,15.31945823,.0004763,97.2264,191.6196,257.7308,102.3401,0,U,47486,999,29653,.26789E-3,.8191E-4,0
HAWK-2C,2021-006CT,2026-05-30T00:35:09.777408,15.34419484,.0005059,97.2290,194.6987,261.6044,98.4626,0,U,47502,999,29671,.26458E-3,.8746E-4,0
ION SCV-002,2021-006CV,2026-05-29T13:35:19.104576,15.43520899,.00114088,97.1117,151.8958,173.3066,186.8337,0,U,47504,999,29715,.33913754E-3,.15171E-3,0
HAWK-2A,2021-006CW,2026-05-30T02:12:55.067328,15.34435448,.0004581,97.2331,195.4320,267.2972,92.7747,0,U,47505,999,29672,.25417E-3,.8402E-4,0
HAWK-2B,2021-006CZ,2026-05-30T00:33:49.308768,15.34490829,.0005051,97.2203,193.7259,264.0580,96.0088,0,U,47508,999,29671,.30394E-3,.10083E-3,0
GHGSAT-C2,2021-006DA,2026-05-30T02:58:03.372096,15.37560189,.0003991,97.2161,197.6957,214.8020,145.2964,0,U,47509,999,29707,.23745E-3,.8673E-4,0
ASTROCAST-0105,2021-006DH,2026-05-30T03:08:38.859648,15.90100353,.0007971,97.2029,213.8161,229.7102,130.3476,0,U,47517,999,29808,.22265E-2,.665128E-2,.17574E-3
YAOGAN-31 02A,2021-007A,2026-05-30T04:57:32.700672,13.45446536,.017437,63.4027,189.3277,0.4417,359.6732,0,U,47532,999,26181,-.65503E-4,-.133E-5,0
YAOGAN-31 02B,2021-007B,2026-05-30T04:57:35.546688,13.45446567,.0174858,63.4020,188.3351,0.5587,359.5603,0,U,47533,999,26181,-.93387E-4,-.151E-5,0
YAOGAN-31 02C,2021-007E,2026-05-30T04:57:15.023232,13.45445679,.0174476,63.4020,188.3531,0.5760,359.5436,0,U,47536,999,26179,-.48979E-4,-.122E-5,0
COSMOS 2549,2021-008A,2026-05-30T04:56:16.362816,13.97020741,.0005646,67.1512,28.7955,263.8840,96.1601,0,U,47546,999,27132,.36731E-4,-.24E-6,0
STARLINK-1954,2021-009H,2026-05-29T22:57:48.651840,15.39135886,.00022451,53.0528,348.8772,107.3789,252.7460,0,U,47555,999,29344,.17415932E-2,.68795E-3,0
